[{"OBJECT_NAME":"COSMOS 2251 DEB","OBJECT_ID":"1993-036PS","EPOCH":"2026-03-06T21:10:26.995296","MEAN_MOTION":14.1706661,"ECCENTRICITY":0.01545141,"INCLINATION":73.9786,"RA_OF_ASC_NODE":320.0476,"ARG_OF_PERICENTER":126.1872,"MEAN_ANOMALY":358.5535,"EPHEMERIS_TYPE":0,"CLASSIFICATION_TYPE":"U","NORAD_CAT_ID":34344,"ELEMENT_SET_NO":999,"REV_AT_EPOCH":87288,"BSTAR":0.0013623326,"MEAN_MOTION_DOT":3.059e-5,"MEAN_MOTION_DDOT":0},{"OBJECT_NAME":"COSMOS 2251 DEB","OBJECT_ID":"1993-036PU","EPOCH":"2026-03-07T08:46:20.436384","MEAN_MOTION":14.00024882,"ECCENTRICITY":0.02090193,"INCLINATION":73.9945,"RA_OF_ASC_NODE":165.3592,"ARG_OF_PERICENTER":324.5819,"MEAN_ANOMALY":111.3603,"EPHEMERIS_TYPE":0,"CLASSIFICATION_TYPE":"U","NORAD_CAT_ID":34346,"ELEMENT_SET_NO":999,"REV_AT_EPOCH":86594,"BSTAR":0.00089090229,"MEAN_MOTION_DOT":1.558e-5,"MEAN_MOTION_DDOT":0},{"OBJECT_NAME":"COSMOS 2251 DEB","OBJECT_ID":"1993-036PY","EPOCH":"2026-03-07T14:00:50.390784","MEAN_MOTION":15.22104747,"ECCENTRICITY":0.00130455,"INCLINATION":74.0256,"RA_OF_ASC_NODE":121.0909,"ARG_OF_PERICENTER":287.3176,"MEAN_ANOMALY":222.8614,"EPHEMERIS_TYPE":0,"CLASSIFICATION_TYPE":"U","NORAD_CAT_ID":34383,"ELEMENT_SET_NO":999,"REV_AT_EPOCH":90398,"BSTAR":0.0040461101,"MEAN_MOTION_DOT":0.00094074,"MEAN_MOTION_DDOT":0},{"OBJECT_NAME":"COSMOS 2251 DEB","OBJECT_ID":"1993-036QC","EPOCH":"2026-03-07T09:43:35.132736","MEAN_MOTION":14.44059893,"ECCENTRICITY":0.00367356,"INCLINATION":74.0392,"RA_OF_ASC_NODE":54.4931,"ARG_OF_PERICENTER":133.962,"MEAN_ANOMALY":16.4863,"EPHEMERIS_TYPE":0,"CLASSIFICATION_TYPE":"U","NORAD_CAT_ID":34387,"ELEMENT_SET_NO":999,"REV_AT_EPOCH":89403,"BSTAR":0.000424831,"MEAN_MOTION_DOT":1.439e-5,"MEAN_MOTION_DDOT":0},{"OBJECT_NAME":"COSMOS 2251 DEB","OBJECT_ID":"1993-036QD","EPOCH":"2026-03-07T10:06:07.004160","MEAN_MOTION":14.49919114,"ECCENTRICITY":0.00100457,"INCLINATION":74.0383,"RA_OF_ASC_NODE":64.2094,"ARG_OF_PERICENTER":97.2549,"MEAN_ANOMALY":53.0811,"EPHEMERIS_TYPE":0,"CLASSIFICATION_TYPE":"U","NORAD_CAT_ID":34388,"ELEMENT_SET_NO":999,"REV_AT_EPOCH":89382,"BSTAR":0.0010241542,"MEAN_MOTION_DOT":3.937e-5,"MEAN_MOTION_DDOT":0},{"OBJECT_NAME":"COSMOS 2251 DEB","OBJECT_ID":"1993-036QE","EPOCH":"2026-03-07T12:47:18.589920","MEAN_MOTION":14.41785886,"ECCENTRICITY":0.00296588,"INCLINATION":74.0164,"RA_OF_ASC_NODE":92.5537,"ARG_OF_PERICENTER":190.9828,"MEAN_ANOMALY":289.4606,"EPHEMERIS_TYPE":0,"CLASSIFICATION_TYPE":"U","NORAD_CAT_ID":34389,"ELEMENT_SET_NO":999,"REV_AT_EPOCH":89234,"BSTAR":0.00044147625,"MEAN_MOTION_DOT":1.423e-5,"MEAN_MOTION_DDOT":0},{"OBJECT_NAME":"COSMOS 2251 DEB","OBJECT_ID":"1993-036QM","EPOCH":"2026-03-07T03:37:06.775968","MEAN_MOTION":14.77042047,"ECCENTRICITY":0.00047637,"INCLINATION":74.0293,"RA_OF_ASC_NODE":318.8125,"ARG_OF_PERICENTER":324.2028,"MEAN_ANOMALY":158.3231,"EPHEMERIS_TYPE":0,"CLASSIFICATION_TYPE":"U","NORAD_CAT_ID":34396,"ELEMENT_SET_NO":999,"REV_AT_EPOCH":89591,"BSTAR":0.0018468932,"MEAN_MOTION_DOT":0.00013027,"MEAN_MOTION_DDOT":0},{"OBJECT_NAME":"COSMOS 2251 DEB","OBJECT_ID":"1993-036RA","EPOCH":"2026-03-07T15:29:10.818240","MEAN_MOTION":14.58250737,"ECCENTRICITY":0.00804919,"INCLINATION":74.0634,"RA_OF_ASC_NODE":145.5585,"ARG_OF_PERICENTER":199.8561,"MEAN_ANOMALY":311.2302,"EPHEMERIS_TYPE":0,"CLASSIFICATION_TYPE":"U","NORAD_CAT_ID":34409,"ELEMENT_SET_NO":999,"REV_AT_EPOCH":90430,"BSTAR":0.0002853435,"MEAN_MOTION_DOT":1.347e-5,"MEAN_MOTION_DDOT":0},{"OBJECT_NAME":"COSMOS 2251 DEB","OBJECT_ID":"1993-036RB","EPOCH":"2026-03-07T00:30:06.794208","MEAN_MOTION":15.30267605,"ECCENTRICITY":0.0025783,"INCLINATION":73.7313,"RA_OF_ASC_NODE":80.6866,"ARG_OF_PERICENTER":269.1536,"MEAN_ANOMALY":90.6711,"EPHEMERIS_TYPE":0,"CLASSIFICATION_TYPE":"U","NORAD_CAT_ID":34410,"ELEMENT_SET_NO":999,"REV_AT_EPOCH":91058,"BSTAR":0.0029538284,"MEAN_MOTION_DOT":0.00088379,"MEAN_MOTION_DDOT":0},{"OBJECT_NAME":"COSMOS 2251 DEB","OBJECT_ID":"1993-036RD","EPOCH":"2026-03-07T15:11:05.891712","MEAN_MOTION":14.4818188,"ECCENTRICITY":0.0188495,"INCLINATION":73.9484,"RA_OF_ASC_NODE":164.8037,"ARG_OF_PERICENTER":241.8186,"MEAN_ANOMALY":116.3823,"EPHEMERIS_TYPE":0,"CLASSIFICATION_TYPE":"U","NORAD_CAT_ID":34412,"ELEMENT_SET_NO":999,"REV_AT_EPOCH":88879,"BSTAR":0.0014666908,"MEAN_MOTION_DOT":6.82e-5,"MEAN_MOTION_DDOT":0},{"OBJECT_NAME":"COSMOS 2251 DEB","OBJECT_ID":"1993-036RE","EPOCH":"2026-03-07T07:37:17.722272","MEAN_MOTION":14.29784535,"ECCENTRICITY":0.00896402,"INCLINATION":74.0289,"RA_OF_ASC_NODE":111.1845,"ARG_OF_PERICENTER":171.5789,"MEAN_ANOMALY":314.3688,"EPHEMERIS_TYPE":0,"CLASSIFICATION_TYPE":"U","NORAD_CAT_ID":34413,"ELEMENT_SET_NO":999,"REV_AT_EPOCH":88339,"BSTAR":0.0012184396,"MEAN_MOTION_DOT":3.245e-5,"MEAN_MOTION_DDOT":0},{"OBJECT_NAME":"COSMOS 2251 DEB","OBJECT_ID":"1993-036RM","EPOCH":"2026-03-07T15:04:01.299648","MEAN_MOTION":14.68525311,"ECCENTRICITY":0.01045458,"INCLINATION":74.0325,"RA_OF_ASC_NODE":299.7331,"ARG_OF_PERICENTER":38.1553,"MEAN_ANOMALY":353.3693,"EPHEMERIS_TYPE":0,"CLASSIFICATION_TYPE":"U","NORAD_CAT_ID":34420,"ELEMENT_SET_NO":999,"REV_AT_EPOCH":91016,"BSTAR":0.000215848,"MEAN_MOTION_DOT":1.326e-5,"MEAN_MOTION_DDOT":0},{"OBJECT_NAME":"COSMOS 2251 DEB","OBJECT_ID":"1993-036RS","EPOCH":"2026-03-07T14:38:46.403520","MEAN_MOTION":14.62707043,"ECCENTRICITY":0.00257264,"INCLINATION":74.0167,"RA_OF_ASC_NODE":251.7591,"ARG_OF_PERICENTER":352.5602,"MEAN_ANOMALY":7.5179,"EPHEMERIS_TYPE":0,"CLASSIFICATION_TYPE":"U","NORAD_CAT_ID":34425,"ELEMENT_SET_NO":999,"REV_AT_EPOCH":89981,"BSTAR":0.00074434454,"MEAN_MOTION_DOT":3.78e-5,"MEAN_MOTION_DDOT":0},{"OBJECT_NAME":"COSMOS 2251 DEB","OBJECT_ID":"1993-036RX","EPOCH":"2026-03-07T14:20:53.444256","MEAN_MOTION":14.39910028,"ECCENTRICITY":0.00609591,"INCLINATION":74.0513,"RA_OF_ASC_NODE":146.764,"ARG_OF_PERICENTER":198.5776,"MEAN_ANOMALY":161.3155,"EPHEMERIS_TYPE":0,"CLASSIFICATION_TYPE":"U","NORAD_CAT_ID":34430,"ELEMENT_SET_NO":999,"REV_AT_EPOCH":89176,"BSTAR":0.00052971141,"MEAN_MOTION_DOT":1.676e-5,"MEAN_MOTION_DDOT":0},{"OBJECT_NAME":"COSMOS 2251 DEB","OBJECT_ID":"1993-036RY","EPOCH":"2026-03-07T06:42:59.123808","MEAN_MOTION":14.29094779,"ECCENTRICITY":0.0067737,"INCLINATION":74.0781,"RA_OF_ASC_NODE":22.1312,"ARG_OF_PERICENTER":344.209,"MEAN_ANOMALY":15.6945,"EPHEMERIS_TYPE":0,"CLASSIFICATION_TYPE":"U","NORAD_CAT_ID":34431,"ELEMENT_SET_NO":999,"REV_AT_EPOCH":88350,"BSTAR":0.0010596,"MEAN_MOTION_DOT":2.728e-5,"MEAN_MOTION_DDOT":0},{"OBJECT_NAME":"COSMOS 2251 DEB","OBJECT_ID":"1993-036RZ","EPOCH":"2026-03-07T03:45:41.846112","MEAN_MOTION":14.03183638,"ECCENTRICITY":0.01802371,"INCLINATION":73.829,"RA_OF_ASC_NODE":313.5659,"ARG_OF_PERICENTER":20.6393,"MEAN_ANOMALY":135.4921,"EPHEMERIS_TYPE":0,"CLASSIFICATION_TYPE":"U","NORAD_CAT_ID":34432,"ELEMENT_SET_NO":999,"REV_AT_EPOCH":86868,"BSTAR":0.00087780048,"MEAN_MOTION_DOT":1.553e-5,"MEAN_MOTION_DDOT":0},{"OBJECT_NAME":"COSMOS 2251 DEB","OBJECT_ID":"1993-036SA","EPOCH":"2026-03-07T12:11:52.108800","MEAN_MOTION":14.13459299,"ECCENTRICITY":0.01502594,"INCLINATION":74.0119,"RA_OF_ASC_NODE":4.7127,"ARG_OF_PERICENTER":124.0479,"MEAN_ANOMALY":237.5034,"EPHEMERIS_TYPE":0,"CLASSIFICATION_TYPE":"U","NORAD_CAT_ID":34433,"ELEMENT_SET_NO":999,"REV_AT_EPOCH":87147,"BSTAR":0.0015648119,"MEAN_MOTION_DOT":3.255e-5,"MEAN_MOTION_DDOT":0},{"OBJECT_NAME":"COSMOS 2251 DEB","OBJECT_ID":"1993-036SB","EPOCH":"2026-03-07T14:04:35.461920","MEAN_MOTION":13.90578047,"ECCENTRICITY":0.02776836,"INCLINATION":74.0606,"RA_OF_ASC_NODE":225.7089,"ARG_OF_PERICENTER":342.6599,"MEAN_ANOMALY":130.5784,"EPHEMERIS_TYPE":0,"CLASSIFICATION_TYPE":"U","NORAD_CAT_ID":34434,"ELEMENT_SET_NO":999,"REV_AT_EPOCH":85145,"BSTAR":0.0019729986,"MEAN_MOTION_DOT":3.334e-5,"MEAN_MOTION_DDOT":0},{"OBJECT_NAME":"COSMOS 2251 DEB","OBJECT_ID":"1993-036SP","EPOCH":"2026-03-07T14:01:53.181984","MEAN_MOTION":14.49457527,"ECCENTRICITY":0.00506278,"INCLINATION":74.0388,"RA_OF_ASC_NODE":258.1567,"ARG_OF_PERICENTER":12.3243,"MEAN_ANOMALY":347.9141,"EPHEMERIS_TYPE":0,"CLASSIFICATION_TYPE":"U","NORAD_CAT_ID":34446,"ELEMENT_SET_NO":999,"REV_AT_EPOCH":89923,"BSTAR":0.00015531466,"MEAN_MOTION_DOT":5.76e-6,"MEAN_MOTION_DDOT":0},{"OBJECT_NAME":"COSMOS 2251 DEB","OBJECT_ID":"1993-036SS","EPOCH":"2026-03-07T14:38:21.808032","MEAN_MOTION":15.017909,"ECCENTRICITY":0.00202266,"INCLINATION":74.0286,"RA_OF_ASC_NODE":258.4876,"ARG_OF_PERICENTER":281.4024,"MEAN_ANOMALY":138.9968,"EPHEMERIS_TYPE":0,"CLASSIFICATION_TYPE":"U","NORAD_CAT_ID":34449,"ELEMENT_SET_NO":999,"REV_AT_EPOCH":89964,"BSTAR":0.0036964869,"MEAN_MOTION_DOT":0.00048694,"MEAN_MOTION_DDOT":0},{"OBJECT_NAME":"COSMOS 2251 DEB","OBJECT_ID":"1993-036SU","EPOCH":"2026-03-07T14:50:18.109824","MEAN_MOTION":15.02897,"ECCENTRICITY":0.00205988,"INCLINATION":74.0424,"RA_OF_ASC_NODE":275.6787,"ARG_OF_PERICENTER":275.2873,"MEAN_ANOMALY":84.5965,"EPHEMERIS_TYPE":0,"CLASSIFICATION_TYPE":"U","NORAD_CAT_ID":34451,"ELEMENT_SET_NO":999,"REV_AT_EPOCH":89907,"BSTAR":0.0031638691,"MEAN_MOTION_DOT":0.0004288,"MEAN_MOTION_DDOT":0},{"OBJECT_NAME":"COSMOS 2251 DEB","OBJECT_ID":"1993-036SV","EPOCH":"2026-03-07T14:27:26.851968","MEAN_MOTION":15.1489029,"ECCENTRICITY":0.00578633,"INCLINATION":74.0296,"RA_OF_ASC_NODE":6.6907,"ARG_OF_PERICENTER":61.0128,"MEAN_ANOMALY":299.685,"EPHEMERIS_TYPE":0,"CLASSIFICATION_TYPE":"U","NORAD_CAT_ID":34452,"ELEMENT_SET_NO":999,"REV_AT_EPOCH":91946,"BSTAR":0.0013665362,"MEAN_MOTION_DOT":0.0002659,"MEAN_MOTION_DDOT":0},{"OBJECT_NAME":"COSMOS 2251 DEB","OBJECT_ID":"1993-036SX","EPOCH":"2026-03-07T14:26:37.989312","MEAN_MOTION":14.38956141,"ECCENTRICITY":0.00347152,"INCLINATION":74.0576,"RA_OF_ASC_NODE":121.3376,"ARG_OF_PERICENTER":167.5175,"MEAN_ANOMALY":192.6848,"EPHEMERIS_TYPE":0,"CLASSIFICATION_TYPE":"U","NORAD_CAT_ID":34454,"ELEMENT_SET_NO":999,"REV_AT_EPOCH":89288,"BSTAR":0.00023909977,"MEAN_MOTION_DOT":7.16e-6,"MEAN_MOTION_DDOT":0}]
